ONEWEB-0158             
1 48054U 21025N   24213.68337643  .00000097  00000+0  22960-3 0  9990
2 48054  87.8903  96.6498 0001995  76.9310 283.2042 13.13468118163647
ONEWEB-0157             
1 48055U 21025P   24213.70717647 -.00000407  00000+0 -11500-2 0  9994
2 48055  87.8898  96.6594 0001911  84.5915 275.5432 13.13470685163584
ONEWEB-0162             
1 48056U 21025Q   24214.20391999  .00000383  00000+0  10149-2 0  9998
2 48056  87.8900  96.5556 0001889  79.8552 280.2790 13.13472143163608
ONEWEB-0155             
1 48057U 21025R   24213.91985913  .00000000  00000+0 -36054-4 0  9993
2 48057  87.8902  96.6234 0001618  82.7313 277.3999 13.13469024163728
ONEWEB-0149             
1 48058U 21025S   24213.71193745 -.00000236  00000+0 -68159-3 0  9998
2 48058  87.8901  96.6609 0002081  82.2893 277.8473 13.13471734163506
ONEWEB-0148             
1 48059U 21025T   24214.43881091  .00000313  00000+0  82332-3 0  9990
2 48059  87.8903  96.5278 0002320  91.5153 268.6242 13.13468308163727
ONEWEB-0160             
1 48060U 21025U   24213.92142724 -.00000084  00000+0 -26486-3 0  9993
2 48060  87.8904  96.6269 0002333  56.1400 303.9951 13.13468289163602
ONEWEB-0163             
1 48061U 21025V   24214.21186208  .00000309  00000+0  81118-3 0  9993
2 48061  87.8902  96.5602 0001772  87.8730 272.2602 13.13468673163770
